[{"OBJECT_NAME":"THEOS-2 (T2V)","OBJECT_ID":"2023-155A","EPOCH":"2026-03-09T23:23:00.745152","MEAN_MOTION":14.81769696,"ECCENTRICITY":0.00013176,"INCLINATION":97.896,"RA_OF_ASC_NODE":141.418,"ARG_OF_PERICENTER":94.2148,"MEAN_ANOMALY":265.9216,"EPHEMERIS_TYPE":0,"CLASSIFICATION_TYPE":"U","NORAD_CAT_ID":58016,"ELEMENT_SET_NO":999,"REV_AT_EPOCH":13073,"BSTAR":0.00016747665,"MEAN_MOTION_DOT":1.269e-5,"MEAN_MOTION_DDOT":0},{"OBJECT_NAME":"IRIDIUM 33 DEB","OBJECT_ID":"1997-051TY","EPOCH":"2026-03-07T22:53:55.599072","MEAN_MOTION":14.83579995,"ECCENTRICITY":0.00087918,"INCLINATION":86.343,"RA_OF_ASC_NODE":303.9409,"ARG_OF_PERICENTER":267.2236,"MEAN_ANOMALY":92.798,"EPHEMERIS_TYPE":0,"CLASSIFICATION_TYPE":"U","NORAD_CAT_ID":35915,"ELEMENT_SET_NO":999,"REV_AT_EPOCH":9348,"BSTAR":0.0022315762,"MEAN_MOTION_DOT":0.0001845,"MEAN_MOTION_DDOT":0}]
